[{"OBJECT_NAME":"YAM-5","OBJECT_ID":"2023-001BV","EPOCH":"2026-03-09T17:04:59.084544","MEAN_MOTION":15.36366488,"ECCENTRICITY":0.00107476,"INCLINATION":97.3317,"RA_OF_ASC_NODE":132.0368,"ARG_OF_PERICENTER":105.8721,"MEAN_ANOMALY":254.3709,"EPHEMERIS_TYPE":0,"CLASSIFICATION_TYPE":"U","NORAD_CAT_ID":55076,"ELEMENT_SET_NO":999,"REV_AT_EPOCH":17682,"BSTAR":0.00037500354,"MEAN_MOTION_DOT":0.00013251,"MEAN_MOTION_DDOT":0},{"OBJECT_NAME":"STARLINK-32955","OBJECT_ID":"2025-039P","EPOCH":"2026-03-09T22:00:01.999584","MEAN_MOTION":15.35643396,"ECCENTRICITY":0.00092359,"INCLINATION":43.0013,"RA_OF_ASC_NODE":10.1549,"ARG_OF_PERICENTER":201.6454,"MEAN_ANOMALY":283.0913,"EPHEMERIS_TYPE":0,"CLASSIFICATION_TYPE":"U","NORAD_CAT_ID":63117,"ELEMENT_SET_NO":999,"REV_AT_EPOCH":575,"BSTAR":0.0033239594,"MEAN_MOTION_DOT":0.00119453,"MEAN_MOTION_DDOT":0}]
